LSCTLF3 18.23  0.15 K153S  21.73763   80.02788   64.35739   12.17788  0.3895454  0.21752314   2.7382037    FO 150328    10   1 13.0 hrs  0.09         Find_Orb   0000 LSCTLF3                     20150328
